[
    {
        "Altitude(m)": 570205.4614458355,
        "Argument of Periapsis(deg)": -0.022603160782972403,
        "Eccentricity": 0.0,
        "Inclination(deg)": 97.0,
        "Latitude(deg)": -17.096746529624223,
        "Longitude(deg)": 105.50264055834663,
        "Mean Anomaly(deg)": 197.0314432691875,
        "RAAN(deg)": 30.005947053618513,
        "Satellite Name": "Starlink Shell 3 1668",
        "Satellite Number": 1668,
        "Semi-Major Axis(m)": 6938478.169268562,
        "Time(s)": 570
    },
    {
        "Altitude(m)": 570395.1214747683,
        "Argument of Periapsis(deg)": -0.02299970746337543,
        "Eccentricity": 0.0,
        "Inclination(deg)": 97.0,
        "Latitude(deg)": -17.71956759175333,
        "Longitude(deg)": 105.37736944354296,
        "Mean Anomaly(deg)": 197.65691946689253,
        "RAAN(deg)": 30.006051387892512,
        "Satellite Name": "Starlink Shell 3 1668",
        "Satellite Number": 1668,
        "Semi-Major Axis(m)": 6938478.169268562,
        "Time(s)": 580
    },
    {
        "Altitude(m)": 570587.9889012497,
        "Argument of Periapsis(deg)": -0.023396254143778456,
        "Eccentricity": 0.0,
        "Inclination(deg)": 97.0,
        "Latitude(deg)": -18.342289092537836,
        "Longitude(deg)": 105.25152442543377,
        "Mean Anomaly(deg)": 198.2823956645976,
        "RAAN(deg)": 30.00615572216653,
        "Satellite Name": "Starlink Shell 3 1668",
        "Satellite Number": 1668,
        "Semi-Major Axis(m)": 6938478.169268562,
        "Time(s)": 590
    },
    {
        "Altitude(m)": 570783.9985118358,
        "Argument of Periapsis(deg)": -0.023792800824181483,
        "Eccentricity": 0.0,
        "Inclination(deg)": 97.0,
        "Latitude(deg)": -18.964907990332797,
        "Longitude(deg)": 105.12507954198404,
        "Mean Anomaly(deg)": 198.90787186230264,
        "RAAN(deg)": 30.00626005644054,
        "Satellite Name": "Starlink Shell 3 1668",
        "Satellite Number": 1668,
        "Semi-Major Axis(m)": 6938478.169268562,
        "Time(s)": 600
    },
    {
        "Altitude(m)": 570983.0834982806,
        "Argument of Periapsis(deg)": -0.024189347504584503,
        "Eccentricity": 0.0,
        "Inclination(deg)": 97.0,
        "Latitude(deg)": -19.58742123140083,
        "Longitude(deg)": 104.99800818592232,
        "Mean Anomaly(deg)": 199.53334806000768,
        "RAAN(deg)": 30.006364390714545,
        "Satellite Name": "Starlink Shell 3 1668",
        "Satellite Number": 1668,
        "Semi-Major Axis(m)": 6938478.169268562,
        "Time(s)": 610
    },
    {
        "Altitude(m)": 571185.1754877694,
        "Argument of Periapsis(deg)": -0.02458589418498753,
        "Eccentricity": 0.0,
        "Inclination(deg)": 97.0,
        "Latitude(deg)": -20.20982574843847,
        "Longitude(deg)": 104.8702835737649,
        "Mean Anomaly(deg)": 200.15882425771272,
        "RAAN(deg)": 30.006468724988554,
        "Satellite Name": "Starlink Shell 3 1668",
        "Satellite Number": 1668,
        "Semi-Major Axis(m)": 6938478.169268562,
        "Time(s)": 620
    },
    {
        "Altitude(m)": 571390.2045739192,
        "Argument of Periapsis(deg)": -0.024982440865390556,
        "Eccentricity": 0.0,
        "Inclination(deg)": 97.0,
        "Latitude(deg)": -20.83211845898599,
        "Longitude(deg)": 104.74187753224264,
        "Mean Anomaly(deg)": 200.78430045541776,
        "RAAN(deg)": 30.006573059262564,
        "Satellite Name": "Starlink Shell 3 1668",
        "Satellite Number": 1668,
        "Semi-Major Axis(m)": 6938478.169268562,
        "Time(s)": 630
    },
    {
        "Altitude(m)": 571598.0993485233,
        "Argument of Periapsis(deg)": -0.025378987545793576,
        "Eccentricity": 0.0,
        "Inclination(deg)": 97.0,
        "Latitude(deg)": -21.45429626371391,
        "Longitude(deg)": 104.61276180444287,
        "Mean Anomaly(deg)": 201.40977665312275,
        "RAAN(deg)": 30.00667739353657,
        "Satellite Name": "Starlink Shell 3 1668",
        "Satellite Number": 1668,
        "Semi-Major Axis(m)": 6938478.169268562,
        "Time(s)": 640
    },
    {
        "Altitude(m)": 571808.7869340325,
        "Argument of Periapsis(deg)": -0.025775534226196602,
        "Eccentricity": 0.0,
        "Inclination(deg)": 97.0,
        "Latitude(deg)": -22.076356044577885,
        "Longitude(deg)": 104.48290683264098,
        "Mean Anomaly(deg)": 202.0352528508278,
        "RAAN(deg)": 30.00678172781058,
        "Satellite Name": "Starlink Shell 3 1668",
        "Satellite Number": 1668,
        "Semi-Major Axis(m)": 6938478.169268562,
        "Time(s)": 650
    },
    {
        "Altitude(m)": 572022.1930167235,
        "Argument of Periapsis(deg)": -0.026172080906599626,
        "Eccentricity": 0.0,
        "Inclination(deg)": 97.0,
        "Latitude(deg)": -22.69829466283407,
        "Longitude(deg)": 104.35228222011933,
        "Mean Anomaly(deg)": 202.66072904853291,
        "RAAN(deg)": 30.006886062084593,
        "Satellite Name": "Starlink Shell 3 1668",
        "Satellite Number": 1668,
        "Semi-Major Axis(m)": 6938478.169268562,
        "Time(s)": 660
    },
    {
        "Altitude(m)": 572238.2418805787,
        "Argument of Periapsis(deg)": -0.026568627587002652,
        "Eccentricity": 0.0,
        "Inclination(deg)": 97.0,
        "Latitude(deg)": -23.320108956906232,
        "Longitude(deg)": 104.22085719086944,
        "Mean Anomaly(deg)": 203.28620524623787,
        "RAAN(deg)": 30.006990396358596,
        "Satellite Name": "Starlink Shell 3 1668",
        "Satellite Number": 1668,
        "Semi-Major Axis(m)": 6938478.169268562,
        "Time(s)": 670
    },
    {
        "Altitude(m)": 572456.8564418084,
        "Argument of Periapsis(deg)": -0.02696517426740568,
        "Eccentricity": 0.0,
        "Inclination(deg)": 97.0,
        "Latitude(deg)": -23.941795740095586,
        "Longitude(deg)": 104.08859953416162,
        "Mean Anomaly(deg)": 203.91168144394294,
        "RAAN(deg)": 30.00709473063261,
        "Satellite Name": "Starlink Shell 3 1668",
        "Satellite Number": 1668,
        "Semi-Major Axis(m)": 6938478.169268562,
        "Time(s)": 680
    },
    {
        "Altitude(m)": 572677.9582840421,
        "Argument of Periapsis(deg)": -0.0273617209478087,
        "Eccentricity": 0.0,
        "Inclination(deg)": 97.0,
        "Latitude(deg)": -24.56335179812265,
        "Longitude(deg)": 103.95547605957182,
        "Mean Anomaly(deg)": 204.537157641648,
        "RAAN(deg)": 30.00719906490661,
        "Satellite Name": "Starlink Shell 3 1668",
        "Satellite Number": 1668,
        "Semi-Major Axis(m)": 6938478.169268562,
        "Time(s)": 690
    },
    {
        "Altitude(m)": 572901.4676941468,
        "Argument of Periapsis(deg)": -0.027758267628211725,
        "Eccentricity": 0.0,
        "Inclination(deg)": 97.0,
        "Latitude(deg)": -25.18477388649119,
        "Longitude(deg)": 103.8214530494288,
        "Mean Anomaly(deg)": 205.16263383935305,
        "RAAN(deg)": 30.007303399180625,
        "Satellite Name": "Starlink Shell 3 1668",
        "Satellite Number": 1668,
        "Semi-Major Axis(m)": 6938478.169268562,
        "Time(s)": 700
    },
    {
        "Altitude(m)": 573127.3036986658,
        "Argument of Periapsis(deg)": -0.028154814308614752,
        "Eccentricity": 0.0,
        "Inclination(deg)": 97.0,
        "Latitude(deg)": -25.80605872766234,
        "Longitude(deg)": 103.68649519563073,
        "Mean Anomaly(deg)": 205.78811003705815,
        "RAAN(deg)": 30.007407733454635,
        "Satellite Name": "Starlink Shell 3 1668",
        "Satellite Number": 1668,
        "Semi-Major Axis(m)": 6938478.169268562,
        "Time(s)": 710
    },
    {
        "Altitude(m)": 573355.3841008123,
        "Argument of Periapsis(deg)": -0.02855136098901778,
        "Eccentricity": 0.0,
        "Inclination(deg)": 97.0,
        "Latitude(deg)": -26.42720300802692,
        "Longitude(deg)": 103.55056604638698,
        "Mean Anomaly(deg)": 206.41358623476316,
        "RAAN(deg)": 30.00751206772864,
        "Satellite Name": "Starlink Shell 3 1668",
        "Satellite Number": 1668,
        "Semi-Major Axis(m)": 6938478.169268562,
        "Time(s)": 720
    },
    {
        "Altitude(m)": 573585.6255180893,
        "Argument of Periapsis(deg)": -0.028947907669420805,
        "Eccentricity": 0.0,
        "Inclination(deg)": 97.0,
        "Latitude(deg)": -27.048203374663316,
        "Longitude(deg)": 103.41362844980553,
        "Mean Anomaly(deg)": 207.03906243246814,
        "RAAN(deg)": 30.00761640200265,
        "Satellite Name": "Starlink Shell 3 1668",
        "Satellite Number": 1668,
        "Semi-Major Axis(m)": 6938478.169268562,
        "Time(s)": 730
    },
    {
        "Altitude(m)": 573817.9434204104,
        "Argument of Periapsis(deg)": -0.029344454349823825,
        "Eccentricity": 0.0,
        "Inclination(deg)": 97.0,
        "Latitude(deg)": -27.669056431865346,
        "Longitude(deg)": 103.27564348123578,
        "Mean Anomaly(deg)": 207.66453863017324,
        "RAAN(deg)": 30.007720736276664,
        "Satellite Name": "Starlink Shell 3 1668",
        "Satellite Number": 1668,
        "Semi-Major Axis(m)": 6938478.169268562,
        "Time(s)": 740
    },
    {
        "Altitude(m)": 574052.2521687719,
        "Argument of Periapsis(deg)": -0.029741001030226845,
        "Eccentricity": 0.0,
        "Inclination(deg)": 97.0,
        "Latitude(deg)": -28.289758737426144,
        "Longitude(deg)": 103.13657087987195,
        "Mean Anomaly(deg)": 208.29001482787825,
        "RAAN(deg)": 30.007825070550666,
        "Satellite Name": "Starlink Shell 3 1668",
        "Satellite Number": 1668,
        "Semi-Major Axis(m)": 6938478.169268562,
        "Time(s)": 750
    }
]